{"fetched_at":"2026-05-30T06:45:33Z","count":5873,"tles":[{"name":"2024-199AK","line1":"1 61768U 24199AK  26149.61506977  .00027758  00000+0  51725-3 0  9997","line2":"2 61768  97.2994  24.2146 0005455  18.1187 342.0257 15.48783291131460","category":"Other"},{"name":"COSMOS 2251 DEB","line1":"1 34120U 93036KR  26104.17878104  .00000278  00000+0  18126-3 0  9997","line2":"2 34120  73.9943   4.1003 0183078 165.4722 347.5630 13.98814455876927","category":"Other"},{"name":"ONEWEB-0363","line1":"1 49289U 21090L   26149.37633266  .00000078  00000+0  16003-3 0  9999","line2":"2 49289  87.9179 278.1891 0002338  95.0628 265.0773 13.20795063227824","category":"Other"},{"name":"STARLINK-30968","line1":"1 58511U 23191D   26149.61183400  .00001612  00000+0  68095-4 0  9992","line2":"2 58511  43.0028   6.7459 0001870 267.9293  92.1344 15.27578474137840","category":"Starlink"},{"name":"COSMOS 2251 DEB","line1":"1 37335U 93036BLB 23175.94731142  .00021008  00000+0  40346-2 0  9990","line2":"2 37335  73.9997  41.1995 0023401 329.6842  30.2970 14.63451782677787","category":"Other"},{"name":"STARLINK-3903","line1":"1 52462U 22049M   26149.01884371  .00000078  00000+0  22994-4 0  9994","line2":"2 52462  53.2027  58.5182 0002097 134.8283 225.2880 15.08844891224379","category":"Starlink"},{"name":"CZ-2F DEB","line1":"1 59593U 24078C   24117.16437429  .06643541  69424-5  71055-2 0  9992","line2":"2 59593  41.6118  40.5394 0251395 137.5527 224.6445 15.69435837   103","category":"Other"},{"name":"FENGYUN 1C DEB","line1":"1 30448U 99025AFK 26104.51938954  .00002416  00000+0  83553-3 0  9990","line2":"2 30448  98.8251 204.0336 0016248  15.3457  49.5443 14.36635308991005","category":"Weather"},{"name":"STARLINK-1735","line1":"1 46565U 20070AK  26149.58337963  .00185374  00000+0  98794-3 0  9998","line2":"2 46565  53.0347  78.5678 0009460  88.4692 344.5212 15.79317831  5996","category":"Starlink"},{"name":"STARLINK-30121","line1":"1 56695U 23067H   26149.47156573  .00001164  00000+0  51816-4 0  9995","line2":"2 56695  43.0002 185.1292 0001144 264.6601  95.4120 15.27582714167934","category":"Starlink"},{"name":"STARLINK-11555 [DTC]","line1":"1 62915U 25027J   26149.46942273  .00143953  00000+0  11044-2 0  9994","line2":"2 62915  43.0012 221.0205 0001668 251.0506 109.0181 15.70875523 75899","category":"Starlink"},{"name":"GLOBALSTAR M027","line1":"1 25884U 99043B   26105.08333324  .00000024  00000+0  33096-2 0  9990","line2":"2 25884  52.0175 145.9707 0021506 119.5444 240.7496 11.04373700174598","category":"Other"},{"name":"LEMUR-2-ALEX-MADDY","line1":"1 44407U 19038X   24195.15116670  .10626445  27116-5  58963-3 0  9992","line2":"2 44407  97.6155 203.8674 0012066 242.1998 117.8079 16.41206853279113","category":"Other"},{"name":"STARLINK-5327","line1":"1 55291U 23010Y   26149.52169321  .00000877  00000+0  81274-4 0  9996","line2":"2 55291  69.9989 180.7825 0003764 267.0478  93.0251 14.98332593185370","category":"Starlink"},{"name":"STARLINK-11359 [DTC]","line1":"1 61884U 24204L   26149.47007398  .00000844  00000+0  11816-4 0  9995","line2":"2 61884  53.1603 317.9273 0000739 101.3089 258.8012 15.69717583 89601","category":"Starlink"},{"name":"IRIDIUM 33 DEB","line1":"1 34376U 97051FU  26104.78645573  .00003884  00000+0  71568-3 0  9995","line2":"2 34376  86.2933 311.1074 0026570 110.7515 249.6549 14.65096166898078","category":"Other"},{"name":"STARLINK-3159","line1":"1 49415U 21104H   26149.45213132 -.00000975  00000+0 -43177-4 0  9992","line2":"2 49415  53.2009 216.5599 0001487  70.8375 289.2778 15.08847122250953","category":"Starlink"},{"name":"YAOGAN-41","line1":"1 58582U 23197A   26149.66205206 -.00000352  00000+0  00000+0 0  9998","line2":"2 58582   3.1621 312.8657 0013838 188.1178 107.7181  1.00269187  9134","category":"Other"},{"name":"FENGYUN 1C DEB","line1":"1 38811U 99025EVB 23178.07028782  .00007025  00000+0  29548-2 0  9994","line2":"2 38811  99.0154 271.7996 0047072 219.4420 140.3328 14.25508910653835","category":"Weather"},{"name":"STARLINK-4330","line1":"1 53080U 22077AP  26149.50634580 -.00000563  00000+0 -34989-4 0  9999","line2":"2 53080  97.4285 330.3881 0001881  81.4927 278.6513 15.05653001213147","category":"Starlink"},{"name":"STARLINK-33583","line1":"1 63503U 25071L   26149.35572915  .00038859  00000+0  89718-3 0  9999","line2":"2 63503  53.1584 124.9915 0000943  79.8743 280.2369 15.42183435 65131","category":"Starlink"},{"name":"STARLINK-37343","line1":"1 69159U 26111M   26149.50003472 -.01557236  71871-3 -35756-2 0  9990","line2":"2 69159  53.1597 245.5115 0000896  67.5668 229.0052 15.96730510  2544","category":"Starlink"},{"name":"STARLINK-30500","line1":"1 58076U 23160B   26149.55853366  .00009004  00000+0  33636-3 0  9997","line2":"2 58076  43.0074 341.1715 0002072 258.0466 102.0153 15.27574497145317","category":"Starlink"},{"name":"STARLINK-34183","line1":"1 64254U 25119X   26149.23386797  .00027226  00000+0  99491-3 0  9999","line2":"2 64254  42.9988 212.5083 0001678 180.8245 179.2604 15.27590894 56486","category":"Starlink"},{"name":"FENGYUN 1C DEB","line1":"1 32172U 99025CTS 23178.80405522  .00012108  00000+0  14448-2 0  9991","line2":"2 32172  99.0516 122.7425 0127856 330.6993  28.7085 14.78704899854680","category":"Weather"},{"name":"STARLINK-2606","line1":"1 48386U 21038AK  26149.53497756  .00005580  00000+0  19132-3 0  9997","line2":"2 48386  53.1580 329.5095 0003456 112.1485 247.9884 15.31724760279631","category":"Starlink"},{"name":"CZ-6A DEB","line1":"1 60969U 24140LU  24249.60448082  .00001688  00000+0  81347-3 0  9992","line2":"2 60969  89.0289 347.8793 0053629 145.2332 215.2380 14.17547454  3011","category":"Other"},{"name":"STARLINK-36222","line1":"1 67097U 25298Y   26149.46525669  .00004354  00000+0  37241-3 0  9995","line2":"2 67097  70.0003 170.9119 0003674 268.2861  91.7878 14.98331998 25318","category":"Starlink"},{"name":"TELECOM 1B","line1":"1 15678U 85035B   26105.00232251 -.00000306  00000+0  00000+0 0  9995","line2":"2 15678  10.2404 321.3267 0003701   0.0196 181.3071  1.00358623136381","category":"Other"},{"name":"LEMUR-2-MIA-GRACE","line1":"1 41998U 17008BC  23318.45457193  .05329865  23261-5  13974-2 0  9995","line2":"2 41998  97.1552  24.5026 0007428 276.5389  83.5059 16.28519529375757","category":"Other"},{"name":"STARLINK-5115","line1":"1 53989U 22125AB  23362.00051290 -.00001715  00000+0 -89677-4 0  9995","line2":"2 53989  53.2148 217.5422 0001485 112.6975 247.4175 15.08832136 68350","category":"Starlink"},{"name":"FENGYUN 1C DEB","line1":"1 29767U 99025BH  26104.81649748  .00003064  00000+0  11935-2 0  9999","line2":"2 29767  98.2104  66.8570 0329225  70.2558 317.8434 14.04624292973271","category":"Weather"},{"name":"STARLINK-1278","line1":"1 45408U 20019BA  26149.23071006  .00066014  00000+0  58567-3 0  9994","line2":"2 45408  53.0395  96.3663 0007007  51.4885 308.6758 15.67944352342558","category":"Starlink"},{"name":"STARLINK-5861","line1":"1 55921U 23037H   26149.30378758 -.00000089  00000+0  30651-6 0  9998","line2":"2 55921  70.0000 101.1509 0003065 267.5214  92.5594 14.98329961175569","category":"Starlink"},{"name":"STARLINK-31308","line1":"1 59153U 24044B   26149.55061449 -.00009346  00000+0 -33004-3 0  9999","line2":"2 59153  43.0024 323.5341 0001292 238.4080 121.6645 15.27627711126517","category":"Starlink"},{"name":"STARLINK-34940","line1":"1 65397U 25191U   26149.59163093  .00003603  00000+0  25356-3 0  9991","line2":"2 65397  97.4333  20.8144 0002141  62.4996 297.6448 15.05656344 42447","category":"Starlink"},{"name":"COSMOS 1261 DEB","line1":"1 35507U 81031N   26104.80419766  .00000573  00000+0  72877-3 0  9995","line2":"2 35507  61.9701 307.7791 7404873  42.7472 355.4631  2.01875625 97143","category":"Other"},{"name":"COSMOS 2553","line1":"1 51511U 22011A   23361.88771867 -.00000021  00000+0  38419-3 0  9997","line2":"2 51511  67.0933 276.4071 0004255 270.9104  89.1352 11.32874358 78239","category":"Other"},{"name":"STARLINK-11511 [DTC]","line1":"1 62468U 24254G   26149.32968098  .00265750  00000+0  20022-2 0  9992","line2":"2 62468  43.0003  96.9240 0001333 254.8544 105.2177 15.70921086 82080","category":"Starlink"},{"name":"STARLINK-36241","line1":"1 68154U 26049N   26149.54323538  .00023172  00000+0  71778-3 0  9997","line2":"2 68154  97.2861 171.0673 0001366 101.3893 258.7503 15.33449613 12030","category":"Starlink"},{"name":"FENGYUN 1C DEB","line1":"1 31188U 99025BJS 26104.17788493  .00001707  00000+0  74006-3 0  9990","line2":"2 31188  98.7346 176.3493 0057919 253.8512 162.6126 14.24687572980793","category":"Weather"},{"name":"STARLINK-1954","line1":"1 47555U 21009H   26149.56719929  .00057759  00000+0  14692-2 0  9994","line2":"2 47555  53.0528 350.7177 0002286 104.1562 255.9696 15.39068031293381","category":"Starlink"},{"name":"STARLINK-11208 [DTC]","line1":"1 60311U 24133L   24239.90103204  .00342389  00000+0  20115-2 0  9992","line2":"2 60311  53.1553  27.9418 0002898  16.0740 344.0373 15.76743238  5635","category":"Starlink"},{"name":"STARLINK-35643","line1":"1 66456U 25262A   26149.51345368  .00030694  00000+0  11209-2 0  9997","line2":"2 66456  43.0009 200.0501 0001567 282.2405  77.8271 15.27563274 31261","category":"Starlink"},{"name":"DOVE 2","line1":"1 39132C 13015C   23256.33909722  .00012739  00000-0  66727-3 0  2560","line2":"2 39132  64.8713 227.4277 0021179 234.1457 323.9426 15.15379686    17","category":"Other"},{"name":"STARLINK-4276","line1":"1 53179U 22083AZ  26149.35594241  .00001049  00000+0  83999-4 0  9990","line2":"2 53179  53.2016 121.5880 0001188  79.5397 280.5729 15.08838114214095","category":"Starlink"},{"name":"STARLINK-33805","line1":"1 63590U 25076X   26149.55644526  .00022544  00000+0  82625-3 0  9994","line2":"2 63590  42.9987 225.3570 0001417 258.4610 101.6083 15.27579816 64197","category":"Starlink"},{"name":"STARLINK-5733","line1":"1 75733C 23083BB  23172.28104167 -.00902684  00000-0 -67105-2 0  1720","line2":"2 75733  43.0061  90.4430 0001435 271.0781 261.2516 15.72774816    12","category":"Starlink"}]}